MAROC-TUBSAT            
1 27004U 01056D   26164.94868678 -.00000024  00000+0  25786-4 0  9998
2 27004  99.8080 341.7472 0020225 149.3566 337.6289 13.70262379225740
METEOSAT-10 (MSG-3)     
1 38552U 12035B   26164.90459367  .00000002  00000+0  00000+0 0  9996
2 38552   4.6637  61.0338 0001425 328.4329 198.7015  1.00276226 50827
METEOR-M 2              
1 40069U 14037A   26164.90766049  .00000238  00000+0  12798-3 0  9996
2 40069  98.5105 140.7616 0006842  52.4205 307.7594 14.21461349618850
METEOR-M2 2             
1 44387U 19038A   26164.94310225  .00000135  00000+0  78271-4 0  9999
2 44387  98.9137 152.1802 0002137  53.4860 306.6515 14.24365448360830
LUDI TANCE 1-01A (L-SA*)
1 51284U 22007A   26164.95424308  .00000578  00000+0  68161-4 0  9990
2 51284  97.8098 172.4201 0001605  90.6197 269.5203 14.88418584237992
LUDI TANCE 1-01B (L-SA*)
1 51822U 22018A   26164.92061907  .00000569  00000+0  67253-4 0  9990
2 51822  97.8102 172.3833 0001590  91.3086 268.8313 14.88414579233220
METEOR-M2 3             
1 57166U 23091A   26164.93666784  .00000010  00000+0  22960-4 0  9991
2 57166  98.6090 219.9814 0004176 163.7099 196.4215 14.24046518154054
LUDI TANCE-4 01A        
1 57624U 23120A   26164.72599303 -.00000156  00000+0  00000+0 0  9990
2 57624  15.1041 194.0527 0001056  51.4878   7.5575  1.00269381 10517
METEOR-M2 4             
1 59051U 24039A   26164.94769895  .00000004  00000+0  21301-4 0  9998
2 59051  98.7009 124.2864 0007110 170.0607 190.0713 14.22429288118803
LEGION 4                
1 60453U 24146B   26164.90523915  .00003495  00000+0  19205-3 0  9998
2 60453  44.9996 140.0665 0014036 291.2266  68.7113 15.16007944100379
