{
 "generated_at": "2026-06-14T08:41:33Z",
 "sources": [
  {
   "name": "CelesTrak",
   "url": "https://celestrak.org/NORAD/elements/",
   "license": "frei verfügbar; Attribution. Ursprünglich USSPACECOM/Space-Track."
  },
  {
   "name": "GCAT (J. McDowell, planet4589.org)",
   "url": "https://planet4589.org/space/gcat/",
   "license": "CC-BY 4.0"
  }
 ],
 "satellites": [
  {
   "norad": 60453,
   "name": "LEGION 4",
   "intl": "2024-146B",
   "group": "resource",
   "gcat": {
    "class": "B",
    "category": "IMG",
    "owner": "MAXARI",
    "state": "US"
   },
   "omm": {
    "OBJECT_NAME": "LEGION 4",
    "OBJECT_ID": "2024-146B",
    "EPOCH": "2026-06-13T21:43:32.662560",
    "MEAN_MOTION": 15.16007944,
    "ECCENTRICITY": 0.00140363,
    "INCLINATION": 44.9996,
    "RA_OF_ASC_NODE": 140.0665,
    "ARG_OF_PERICENTER": 291.2266,
    "MEAN_ANOMALY": 68.7113,
    "EPHEMERIS_TYPE": 0,
    "CLASSIFICATION_TYPE": "U",
    "NORAD_CAT_ID": 60453,
    "ELEMENT_SET_NO": 999,
    "REV_AT_EPOCH": 10037,
    "BSTAR": 0.00019204541,
    "MEAN_MOTION_DOT": 0.00003495,
    "MEAN_MOTION_DDOT": 0
   }
  },
  {
   "norad": 51284,
   "name": "LUDI TANCE 1-01A (L-SAR 01A)",
   "intl": "2022-007A",
   "group": "sar",
   "gcat": {
    "class": "C",
    "category": "IMG-R",
    "owner": "SAST",
    "state": "CN"
   },
   "omm": {
    "OBJECT_NAME": "LUDI TANCE 1-01A (L-SAR 01A)",
    "OBJECT_ID": "2022-007A",
    "EPOCH": "2026-06-13T22:54:06.602112",
    "MEAN_MOTION": 14.88418584,
    "ECCENTRICITY": 0.00016057,
    "INCLINATION": 97.8098,
    "RA_OF_ASC_NODE": 172.4201,
    "ARG_OF_PERICENTER": 90.6197,
    "MEAN_ANOMALY": 269.5203,
    "EPHEMERIS_TYPE": 0,
    "CLASSIFICATION_TYPE": "U",
    "NORAD_CAT_ID": 51284,
    "ELEMENT_SET_NO": 999,
    "REV_AT_EPOCH": 23799,
    "BSTAR": 0.000068160728,
    "MEAN_MOTION_DOT": 0.00000578,
    "MEAN_MOTION_DDOT": 0
   }
  },
  {
   "norad": 51822,
   "name": "LUDI TANCE 1-01B (L-SAR 01B)",
   "intl": "2022-018A",
   "group": "sar",
   "gcat": {
    "class": "C",
    "category": "IMG-R",
    "owner": "SAST",
    "state": "CN"
   },
   "omm": {
    "OBJECT_NAME": "LUDI TANCE 1-01B (L-SAR 01B)",
    "OBJECT_ID": "2022-018A",
    "EPOCH": "2026-06-13T22:05:41.487648",
    "MEAN_MOTION": 14.88414579,
    "ECCENTRICITY": 0.00015904,
    "INCLINATION": 97.8102,
    "RA_OF_ASC_NODE": 172.3833,
    "ARG_OF_PERICENTER": 91.3086,
    "MEAN_ANOMALY": 268.8313,
    "EPHEMERIS_TYPE": 0,
    "CLASSIFICATION_TYPE": "U",
    "NORAD_CAT_ID": 51822,
    "ELEMENT_SET_NO": 999,
    "REV_AT_EPOCH": 23322,
    "BSTAR": 0.000067253442,
    "MEAN_MOTION_DOT": 0.00000569,
    "MEAN_MOTION_DDOT": 0
   }
  },
  {
   "norad": 57624,
   "name": "LUDI TANCE-4 01A",
   "intl": "2023-120A",
   "group": "sar",
   "gcat": {
    "class": "D",
    "category": "IMG-R",
    "owner": "CNSA",
    "state": "CN"
   },
   "omm": {
    "OBJECT_NAME": "LUDI TANCE-4 01A",
    "OBJECT_ID": "2023-120A",
    "EPOCH": "2026-06-13T17:25:25.797792",
    "MEAN_MOTION": 1.00269381,
    "ECCENTRICITY": 0.00010566,
    "INCLINATION": 15.1041,
    "RA_OF_ASC_NODE": 194.0527,
    "ARG_OF_PERICENTER": 51.4878,
    "MEAN_ANOMALY": 7.5575,
    "EPHEMERIS_TYPE": 0,
    "CLASSIFICATION_TYPE": "U",
    "NORAD_CAT_ID": 57624,
    "ELEMENT_SET_NO": 999,
    "REV_AT_EPOCH": 1051,
    "BSTAR": 0,
    "MEAN_MOTION_DOT": -0.00000156,
    "MEAN_MOTION_DDOT": 0
   }
  },
  {
   "norad": 27004,
   "name": "MAROC-TUBSAT",
   "intl": "2001-056D",
   "group": "resource",
   "gcat": {
    "class": null,
    "category": null,
    "owner": null,
    "state": null
   },
   "omm": {
    "OBJECT_NAME": "MAROC-TUBSAT",
    "OBJECT_ID": "2001-056D",
    "EPOCH": "2026-06-13T22:46:06.537792",
    "MEAN_MOTION": 13.70262379,
    "ECCENTRICITY": 0.00202255,
    "INCLINATION": 99.808,
    "RA_OF_ASC_NODE": 341.7472,
    "ARG_OF_PERICENTER": 149.3566,
    "MEAN_ANOMALY": 337.6289,
    "EPHEMERIS_TYPE": 0,
    "CLASSIFICATION_TYPE": "U",
    "NORAD_CAT_ID": 27004,
    "ELEMENT_SET_NO": 999,
    "REV_AT_EPOCH": 22574,
    "BSTAR": 0.000025785699,
    "MEAN_MOTION_DOT": -2.4e-7,
    "MEAN_MOTION_DDOT": 0
   }
  },
  {
   "norad": 40069,
   "name": "METEOR-M 2",
   "intl": "2014-037A",
   "group": "weather",
   "gcat": {
    "class": "C",
    "category": "MET",
    "owner": "RGMS/VNIIEMI",
    "state": "RU"
   },
   "omm": {
    "OBJECT_NAME": "METEOR-M 2",
    "OBJECT_ID": "2014-037A",
    "EPOCH": "2026-06-13T21:47:01.866336",
    "MEAN_MOTION": 14.21461349,
    "ECCENTRICITY": 0.00068421,
    "INCLINATION": 98.5105,
    "RA_OF_ASC_NODE": 140.7616,
    "ARG_OF_PERICENTER": 52.4205,
    "MEAN_ANOMALY": 307.7594,
    "EPHEMERIS_TYPE": 0,
    "CLASSIFICATION_TYPE": "U",
    "NORAD_CAT_ID": 40069,
    "ELEMENT_SET_NO": 999,
    "REV_AT_EPOCH": 61885,
    "BSTAR": 0.00012798329,
    "MEAN_MOTION_DOT": 0.00000238,
    "MEAN_MOTION_DDOT": 0
   }
  },
  {
   "norad": 44387,
   "name": "METEOR-M2 2",
   "intl": "2019-038A",
   "group": "weather",
   "gcat": {
    "class": "C",
    "category": "MET",
    "owner": "RGMS/VNIIEMI",
    "state": "RU"
   },
   "omm": {
    "OBJECT_NAME": "METEOR-M2 2",
    "OBJECT_ID": "2019-038A",
    "EPOCH": "2026-06-13T22:38:04.034400",
    "MEAN_MOTION": 14.24365448,
    "ECCENTRICITY": 0.00021374,
    "INCLINATION": 98.9137,
    "RA_OF_ASC_NODE": 152.1802,
    "ARG_OF_PERICENTER": 53.486,
    "MEAN_ANOMALY": 306.6515,
    "EPHEMERIS_TYPE": 0,
    "CLASSIFICATION_TYPE": "U",
    "NORAD_CAT_ID": 44387,
    "ELEMENT_SET_NO": 999,
    "REV_AT_EPOCH": 36083,
    "BSTAR": 0.000078270573,
    "MEAN_MOTION_DOT": 0.00000135,
    "MEAN_MOTION_DDOT": 0
   }
  },
  {
   "norad": 57166,
   "name": "METEOR-M2 3",
   "intl": "2023-091A",
   "group": "weather",
   "gcat": {
    "class": "C",
    "category": "MET",
    "owner": "RGMS/VNIIEMI",
    "state": "RU"
   },
   "omm": {
    "OBJECT_NAME": "METEOR-M2 3",
    "OBJECT_ID": "2023-091A",
    "EPOCH": "2026-06-13T22:28:48.101376",
    "MEAN_MOTION": 14.24046518,
    "ECCENTRICITY": 0.00041764,
    "INCLINATION": 98.609,
    "RA_OF_ASC_NODE": 219.9814,
    "ARG_OF_PERICENTER": 163.7099,
    "MEAN_ANOMALY": 196.4215,
    "EPHEMERIS_TYPE": 0,
    "CLASSIFICATION_TYPE": "U",
    "NORAD_CAT_ID": 57166,
    "ELEMENT_SET_NO": 999,
    "REV_AT_EPOCH": 15405,
    "BSTAR": 0.000022959829,
    "MEAN_MOTION_DOT": 1e-7,
    "MEAN_MOTION_DDOT": 0
   }
  },
  {
   "norad": 59051,
   "name": "METEOR-M2 4",
   "intl": "2024-039A",
   "group": "weather",
   "gcat": {
    "class": "C",
    "category": "MET",
    "owner": "RGMS/VNIIEMI",
    "state": "RU"
   },
   "omm": {
    "OBJECT_NAME": "METEOR-M2 4",
    "OBJECT_ID": "2024-039A",
    "EPOCH": "2026-06-13T22:44:41.189280",
    "MEAN_MOTION": 14.22429288,
    "ECCENTRICITY": 0.00071102,
    "INCLINATION": 98.7009,
    "RA_OF_ASC_NODE": 124.2864,
    "ARG_OF_PERICENTER": 170.0607,
    "MEAN_ANOMALY": 190.0713,
    "EPHEMERIS_TYPE": 0,
    "CLASSIFICATION_TYPE": "U",
    "NORAD_CAT_ID": 59051,
    "ELEMENT_SET_NO": 999,
    "REV_AT_EPOCH": 11880,
    "BSTAR": 0.000021301492,
    "MEAN_MOTION_DOT": 4e-8,
    "MEAN_MOTION_DDOT": 0
   }
  },
  {
   "norad": 38552,
   "name": "METEOSAT-10 (MSG-3)",
   "intl": "2012-035B",
   "group": "weather",
   "gcat": {
    "class": "C",
    "category": "MET",
    "owner": "EUMET",
    "state": "I-EUM"
   },
   "omm": {
    "OBJECT_NAME": "METEOSAT-10 (MSG-3)",
    "OBJECT_ID": "2012-035B",
    "EPOCH": "2026-06-13T21:42:36.893088",
    "MEAN_MOTION": 1.00276226,
    "ECCENTRICITY": 0.00014255,
    "INCLINATION": 4.6637,
    "RA_OF_ASC_NODE": 61.0338,
    "ARG_OF_PERICENTER": 328.4329,
    "MEAN_ANOMALY": 198.7015,
    "EPHEMERIS_TYPE": 0,
    "CLASSIFICATION_TYPE": "U",
    "NORAD_CAT_ID": 38552,
    "ELEMENT_SET_NO": 999,
    "REV_AT_EPOCH": 5082,
    "BSTAR": 0,
    "MEAN_MOTION_DOT": 2e-8,
    "MEAN_MOTION_DDOT": 0
   }
  }
 ]
}
